OBJECT_NAME,OBJECT_ID,EPOCH,MEAN_MOTION,ECCENTRICITY,INCLINATION,RA_OF_ASC_NODE,ARG_OF_PERICENTER,MEAN_ANOMALY,EPHEMERIS_TYPE,CLASSIFICATION_TYPE,NORAD_CAT_ID,ELEMENT_SET_NO,REV_AT_EPOCH,BSTAR,MEAN_MOTION_DOT,MEAN_MOTION_DDOT
LOPEN,2024-149F,2026-05-21T17:41:25.325952,15.38834040,.0001547,97.3773,224.9152,56.3349,303.8044,0,U,60473,999,9819,.2731E-3,.10408E-3,0
ROCK,2024-149G,2026-05-21T17:22:03.012672,15.38836452,.0001501,97.3772,224.9193,44.5857,315.5508,0,U,60474,999,9819,.26916E-3,.10257E-3,0
CONNECTA IOT-3,2024-149H,2026-05-21T17:06:11.414304,15.23318118,.0003233,97.3736,218.2162,30.8641,329.2785,0,U,60475,999,9777,.118E-3,.2731E-4,0
QUBE,2024-149J,2026-05-21T04:36:47.248128,15.45829752,.00009906,97.3772,227.1338,18.4534,341.6751,0,U,60476,999,9829,.35012502E-3,.16904E-3,0
WREN-1,2024-149L,2026-05-21T16:56:08.248128,15.40409015,.0003764,97.3761,225.5632,18.6401,341.4982,0,U,60478,999,9824,.35439E-3,.14258E-3,0
TOMORROW-S1,2024-149M,2026-05-21T18:10:43.241088,15.32300056,.0002323,97.3747,222.3213,22.8549,337.2796,0,U,60479,999,9804,.16006E-3,.4913E-4,0
FLOCK 4BE-18,2024-149N,2026-05-21T15:48:54.150048,15.40912468,.000296,97.3722,225.1299,17.5240,342.6109,0,U,60480,999,9822,.26793E-3,.10934E-3,0
FLOCK 4BE-7,2024-149P,2026-05-21T18:25:41.693088,15.39117074,.0002379,97.3755,224.6359,28.7521,331.3855,0,U,60481,999,9818,.39496E-3,.15239E-3,0
TOMORROW-S2,2024-149T,2026-05-21T17:21:13.323168,15.32315008,.0003229,97.3814,222.7510,39.8751,320.2728,0,U,60485,999,9803,.16378E-3,.5032E-4,0
FLOCK 4BE-36,2024-149U,2026-05-21T15:29:38.641632,15.41800672,.00034,97.3740,225.7748,31.9607,328.1846,0,U,60486,999,9826,.27227E-3,.11447E-3,0
FLOCK 4BE-25,2024-149V,2026-05-21T16:20:06.008640,15.38061995,.0001995,97.3794,224.6666,42.3425,317.7973,0,U,60487,999,9816,.25454E-3,.9453E-4,0
FLOCK 4BE-31,2024-149W,2026-05-21T18:18:53.246592,15.42963614,.0002496,97.3793,226.6802,44.7239,315.4210,0,U,60488,999,9830,.29659E-3,.12974E-3,0
FLOCK 4BE-20,2024-149X,2026-05-21T18:15:35.959104,15.37284760,.0003396,97.3693,223.6938,29.2409,330.9025,0,U,60489,999,9815,.25581E-3,.9264E-4,0
FLOCK 4BE-23,2024-149Y,2026-05-21T17:52:25.534272,15.36928780,.0003384,97.3775,224.0390,38.1892,321.9592,0,U,60490,999,9813,.2847E-3,.10203E-3,0
FLOCK 4BE-15,2024-149Z,2026-05-21T17:42:24.082272,15.53717774,.000237,97.3696,226.2399,130.3297,229.8164,0,U,60491,999,9831,.13809E-2,.89125E-3,0
FLOCK 4BE-17,2024-149AA,2026-05-21T18:20:22.775136,15.38922425,.0002583,97.3768,224.9421,29.9437,330.1955,0,U,60492,999,9819,.27774E-3,.10618E-3,0
NUSAT-50 (NANCY ROMAN),2024-149AB,2026-05-21T17:44:37.004352,15.29336772,.0001766,97.3784,223.1897,301.9583,58.1485,0,U,60493,999,9808,.21622E-3,.6077E-4,0
FLOCK 4BE-22,2024-149AC,2026-05-21T16:53:54.640032,15.40279072,.0003347,97.3728,225.0325,32.6348,327.5105,0,U,60494,999,9822,.27902E-3,.11155E-3,0
FLOCK 4BE-34,2024-149AD,2026-05-21T17:18:53.852832,15.40307809,.0003717,97.3773,225.8549,44.1896,315.9647,0,U,60495,999,9825,.26743E-3,.10698E-3,0
TYCHE,2024-149AE,2026-05-21T16:59:11.586336,15.25829236,.0002965,97.3752,219.8789,46.1822,313.9661,0,U,60496,999,9786,.11809E-3,.2948E-4,0
FLOCK 4BE-32,2024-149AF,2026-05-21T16:56:33.762912,15.41151323,.0003556,97.3718,225.3673,38.6324,321.5177,0,U,60497,999,9825,.31504E-3,.12979E-3,0
NUSAT-48 (HENRIETTA LEAVITT),2024-149AG,2026-05-21T11:21:20.939328,15.29951422,.0004201,97.3903,223.1083,32.6851,327.4649,0,U,60498,999,9805,.22755E-3,.6523E-4,0
FLOCK 4BE-30,2024-149AH,2026-05-21T17:07:01.716384,15.49930638,.0001789,97.3779,226.4772,169.0673,191.0617,0,U,60499,999,9766,.12954E-2,.72889E-3,0
NUSAT-49 (KLARA DAN VON NEUMANN),2024-149AJ,2026-05-21T17:07:23.553120,15.29997686,.000325,97.3774,223.1818,66.1244,294.0337,0,U,60500,999,9808,.21559E-3,.6185E-4,0
FLOCK 4BE-11,2024-149AK,2026-05-21T17:09:27.302112,15.42004027,.0003608,97.3694,225.5800,36.0621,324.0868,0,U,60501,999,9827,.28323E-3,.11994E-3,0
YAM-7,2024-149AN,2026-05-21T11:12:19.822176,15.31401649,.0004309,97.3782,221.8332,51.6479,308.5149,0,U,60504,999,9796,.17633E-3,.527E-4,0
FLOCK 4BE-24,2024-149AP,2026-05-21T18:24:15.870240,15.41971328,.0003786,97.3711,225.8817,44.6604,315.4947,0,U,60505,999,9829,.31821E-3,.13474E-3,0
LUR-1,2024-149AQ,2026-05-21T18:06:35.606592,15.29712639,.0005157,97.3736,220.7818,55.7621,304.4107,0,U,60506,999,9793,.16573E-3,.4695E-4,0
TANAGER-1,2024-149AR,2026-05-21T12:53:30.041664,15.44650124,.0005395,97.3077,235.7248,48.5196,311.6515,0,U,60507,999,9892,.18793E-3,.8671E-4,0
