LOPEN                   
1 60473U 24149F   26141.73709868  .00010408  00000+0  27310-3 0  9990
2 60473  97.3773 224.9152 0001547  56.3349 303.8044 15.38834040 98195
ROCK                    
1 60474U 24149G   26141.72364598  .00010257  00000+0  26916-3 0  9990
2 60474  97.3772 224.9193 0001501  44.5857 315.5508 15.38836452 98197
CONNECTA IOT-3          
1 60475U 24149H   26141.71263211  .00002731  00000+0  11800-3 0  9994
2 60475  97.3736 218.2162 0003233  30.8641 329.2785 15.23318118 97773
QUBE                    
1 60476U 24149J   26141.19221352  .00016904  00000+0  35013-3 0  9996
2 60476  97.3772 227.1338 0000990  18.4534 341.6751 15.45829752 98292
WREN-1                  
1 60478U 24149L   26141.70565102  .00014258  00000+0  35439-3 0  9991
2 60478  97.3761 225.5632 0003764  18.6401 341.4982 15.40409015 98248
TOMORROW-S1             
1 60479U 24149M   26141.75744492  .00004913  00000+0  16006-3 0  9994
2 60479  97.3747 222.3213 0002323  22.8549 337.2796 15.32300056 98043
FLOCK 4BE-18            
1 60480U 24149N   26141.65896007  .00010934  00000+0  26793-3 0  9999
2 60480  97.3722 225.1299 0002960  17.5240 342.6109 15.40912468 98222
FLOCK 4BE-7             
1 60481U 24149P   26141.76784367  .00015239  00000+0  39496-3 0  9994
2 60481  97.3755 224.6359 0002379  28.7521 331.3855 15.39117074 98186
TOMORROW-S2             
1 60485U 24149T   26141.72307087  .00005032  00000+0  16378-3 0  9998
2 60485  97.3814 222.7510 0003229  39.8751 320.2728 15.32315008 98037
FLOCK 4BE-36            
1 60486U 24149U   26141.64558613  .00011447  00000+0  27227-3 0  9995
2 60486  97.3740 225.7748 0003400  31.9607 328.1846 15.41800672 98265
FLOCK 4BE-25            
1 60487U 24149V   26141.68062510  .00009453  00000+0  25454-3 0  9990
2 60487  97.3794 224.6666 0001995  42.3425 317.7973 15.38061995 98160
FLOCK 4BE-31            
1 60488U 24149W   26141.76311628  .00012974  00000+0  29659-3 0  9990
2 60488  97.3793 226.6802 0002496  44.7239 315.4210 15.42963614 98309
FLOCK 4BE-20            
1 60489U 24149X   26141.76083286  .00009264  00000+0  25581-3 0  9995
2 60489  97.3693 223.6938 0003396  29.2409 330.9025 15.37284760 98154
FLOCK 4BE-23            
1 60490U 24149Y   26141.74473998  .00010203  00000+0  28470-3 0  9993
2 60490  97.3775 224.0390 0003384  38.1892 321.9592 15.36928780 98139
FLOCK 4BE-15            
1 60491U 24149Z   26141.73777873  .00089125  00000+0  13809-2 0  9990
2 60491  97.3696 226.2399 0002370 130.3297 229.8164 15.53717774 98312
FLOCK 4BE-17            
1 60492U 24149AA  26141.76415249  .00010618  00000+0  27774-3 0  9998
2 60492  97.3768 224.9421 0002583  29.9437 330.1955 15.38922425 98193
NUSAT-50 (NANCY ROMAN)  
1 60493U 24149AB  26141.73931718  .00006077  00000+0  21622-3 0  9990
2 60493  97.3784 223.1897 0001766 301.9583  58.1485 15.29336772 98084
FLOCK 4BE-22            
1 60494U 24149AC  26141.70410463  .00011155  00000+0  27902-3 0  9997
2 60494  97.3728 225.0325 0003347  32.6348 327.5105 15.40279072 98224
FLOCK 4BE-34            
1 60495U 24149AD  26141.72145663  .00010698  00000+0  26743-3 0  9990
2 60495  97.3773 225.8549 0003717  44.1896 315.9647 15.40307809 98253
TYCHE                   
1 60496U 24149AE  26141.70777299  .00002948  00000+0  11809-3 0  9991
2 60496  97.3752 219.8789 0002965  46.1822 313.9661 15.25829236 97861
FLOCK 4BE-32            
1 60497U 24149AF  26141.70594633  .00012979  00000+0  31504-3 0  9990
2 60497  97.3718 225.3673 0003556  38.6324 321.5177 15.41151323 98252
NUSAT-48 (HENRIETTA LE*)
1 60498U 24149AG  26141.47315902  .00006523  00000+0  22755-3 0  9991
2 60498  97.3903 223.1083 0004201  32.6851 327.4649 15.29951422 98058
FLOCK 4BE-30            
1 60499U 24149AH  26141.71321431  .00072889  00000+0  12954-2 0  9990
2 60499  97.3779 226.4772 0001789 169.0673 191.0617 15.49930638 97660
NUSAT-49 (KLARA DAN VO*)
1 60500U 24149AJ  26141.71346705  .00006185  00000+0  21559-3 0  9992
2 60500  97.3774 223.1818 0003250  66.1244 294.0337 15.29997686 98083
FLOCK 4BE-11            
1 60501U 24149AK  26141.71489933  .00011994  00000+0  28323-3 0  9994
2 60501  97.3694 225.5800 0003608  36.0621 324.0868 15.42004027 98271
YAM-7                   
1 60504U 24149AN  26141.46689609  .00005270  00000+0  17633-3 0  9993
2 60504  97.3782 221.8332 0004309  51.6479 308.5149 15.31401649 97967
FLOCK 4BE-24            
1 60505U 24149AP  26141.76685035  .00013474  00000+0  31821-3 0  9996
2 60505  97.3711 225.8817 0003786  44.6604 315.4947 15.41971328 98299
LUR-1                   
1 60506U 24149AQ  26141.75457878  .00004695  00000+0  16573-3 0  9990
2 60506  97.3736 220.7818 0005157  55.7621 304.4107 15.29712639 97938
TANAGER-1               
1 60507U 24149AR  26141.53715326  .00008671  00000+0  18793-3 0  9996
2 60507  97.3077 235.7248 0005395  48.5196 311.6515 15.44650124 98921
